{"type": "FeatureCollection", "features": [ {"type": "Feature", "properties": {"norad_id": 30252, "name": "FENGYUN 1C DEB", "group": "fengyun-1c-debris", "lat": -48.233712547616584, "lon": 20.403526401657583, "alt_km": 870.9870998816032, "timestamp": "2025-12-21T16:47:55.013221+00:00", "meta": {"OBJECT_NAME": "FENGYUN 1C DEB", "OBJECT_ID": "1999-025XM", "EPOCH": "2025-12-21T06:52:28.809120", "MEAN_MOTION": 14.09723506, "ECCENTRICITY": 0.0066231, "INCLINATION": 98.7428, "RA_OF_ASC_NODE": 10.0796, "ARG_OF_PERICENTER": 217.239, "MEAN_ANOMALY": 155.7594, "EPHEMERIS_TYPE": 0, "CLASSIFICATION_TYPE": "U", "NORAD_CAT_ID": 30252, "ELEMENT_SET_NO": 999, "REV_AT_EPOCH": 97086, "BSTAR": 0.0003462, "MEAN_MOTION_DOT": 5.77e-06, "MEAN_MOTION_DDOT": 0}, "tle": {"line1": "1 30252U 99025XM  25355.28644455  .00000577  00000+0  34620-3 0  9991", "line2": "2 30252  98.7428  10.0796 0066231 217.2390 155.7594 14.09723506970860"}}, "geometry": {"type": "Point", "coordinates": [20.403526401657583, -48.233712547616584]}}, {"type": "Feature", "properties": {"norad_id": 30253, "name": "FENGYUN 1C DEB", "group": "fengyun-1c-debris", "lat": 6.232332954550161, "lon": 82.04109658373675, "alt_km": 829.9856187774803, "timestamp": "2025-12-21T16:47:55.013231+00:00", "meta": {"OBJECT_NAME": "FENGYUN 1C DEB", "OBJECT_ID": "1999-025XN", "EPOCH": "2025-12-21T01:37:05.371392", "MEAN_MOTION": 13.7321242, "ECCENTRICITY": 0.02209955, "INCLINATION": 98.7518, "RA_OF_ASC_NODE": 82.426, "ARG_OF_PERICENTER": 18.8804, "MEAN_ANOMALY": 102.7897, "EPHEMERIS_TYPE": 0, "CLASSIFICATION_TYPE": "U", "NORAD_CAT_ID": 30253, "ELEMENT_SET_NO": 999, "REV_AT_EPOCH": 94128, "BSTAR": 0.0015116622, "MEAN_MOTION_DOT": 1.63e-05, "MEAN_MOTION_DDOT": 0}, "tle": {"line1": "1 30253U 99025XN  25355.06742328  .00001630  00000+0  15117-2 0  9996", "line2": "2 30253  98.7518  82.4260 0220995  18.8804 102.7897 13.73212420941284"}}, "geometry": {"type": "Point", "coordinates": [82.04109658373675, 6.232332954550161]}}, {"type": "Feature", "properties": {"norad_id": 30257, "name": "FENGYUN 1C DEB", "group": "fengyun-1c-debris", "lat": -49.58231737676587, "lon": 4.432462630911971, "alt_km": 891.5269607925638, "timestamp": "2025-12-21T16:47:55.013241+00:00", "meta": {"OBJECT_NAME": "FENGYUN 1C DEB", "OBJECT_ID": "1999-025XS", "EPOCH": "2025-12-21T12:31:22.065024", "MEAN_MOTION": 14.09728344, "ECCENTRICITY": 0.0059692, "INCLINATION": 98.7496, "RA_OF_ASC_NODE": 353.8405, "ARG_OF_PERICENTER": 74.8412, "MEAN_ANOMALY": 51.7638, "EPHEMERIS_TYPE": 0, "CLASSIFICATION_TYPE": "U", "NORAD_CAT_ID": 30257, "ELEMENT_SET_NO": 999, "REV_AT_EPOCH": 97341, "BSTAR": 0.00016653, "MEAN_MOTION_DOT": 2.55e-06, "MEAN_MOTION_DDOT": 0}, "tle": {"line1": "1 30257U 99025XS  25355.52178316  .00000255  00000+0  16653-3 0  9990", "line2": "2 30257  98.7496 353.8405 0059692  74.8412  51.7638 14.09728344973413"}}, "geometry": {"type": "Point", "coordinates": [4.432462630911971, -49.58231737676587]}}, {"type": "Feature", "properties": {"norad_id": 30259, "name": "FENGYUN 1C DEB", "group": "fengyun-1c-debris", "lat": -79.40173863816761, "lon": -27.694849716676313, "alt_km": 569.1288293491853, "timestamp": "2025-12-21T16:47:55.013251+00:00", "meta": {"OBJECT_NAME": "FENGYUN 1C DEB", "OBJECT_ID": "1999-025XU", "EPOCH": "2025-12-21T02:54:47.225088", "MEAN_MOTION": 14.51543666, "ECCENTRICITY": 0.0241978, "INCLINATION": 98.7609, "RA_OF_ASC_NODE": 207.2047, "ARG_OF_PERICENTER": 242.7873, "MEAN_ANOMALY": 238.5959, "EPHEMERIS_TYPE": 0, "CLASSIFICATION_TYPE": "U", "NORAD_CAT_ID": 30259, "ELEMENT_SET_NO": 999, "REV_AT_EPOCH": 99596, "BSTAR": 0.00031073312, "MEAN_MOTION_DOT": 1.755e-05, "MEAN_MOTION_DDOT": 0}, "tle": {"line1": "1 30259U 99025XU  25355.12137992  .00001755  00000+0  31073-3 0  9992", "line2": "2 30259  98.7609 207.2047 0241978 242.7873 238.5959 14.51543666995966"}}, "geometry": {"type": "Point", "coordinates": [-27.694849716676313, -79.40173863816761]}}, {"type": "Feature", "properties": {"norad_id": 30263, "name": "FENGYUN 1C DEB", "group": "fengyun-1c-debris", "lat": -34.10890252007943, "lon": -75.42024016063576, "alt_km": 947.6348883742321, "timestamp": "2025-12-21T16:47:55.013262+00:00", "meta": {"OBJECT_NAME": "FENGYUN 1C DEB", "OBJECT_ID": "1999-025XY", "EPOCH": "2025-12-20T07:28:46.628256", "MEAN_MOTION": 14.01494898, "ECCENTRICITY": 0.01444826, "INCLINATION": 98.9351, "RA_OF_ASC_NODE": 109.3367, "ARG_OF_PERICENTER": 339.2977, "MEAN_ANOMALY": 76.0019, "EPHEMERIS_TYPE": 0, "CLASSIFICATION_TYPE": "U", "NORAD_CAT_ID": 30263, "ELEMENT_SET_NO": 999, "REV_AT_EPOCH": 96131, "BSTAR": 0.00070985244, "MEAN_MOTION_DOT": 1.131e-05, "MEAN_MOTION_DDOT": 0}, "tle": {"line1": "1 30263U 99025XY  25354.31165079  .00001131  00000+0  70985-3 0  9997", "line2": "2 30263  98.9351 109.3367 0144482 339.2977  76.0019 14.01494898961314"}}, "geometry": {"type": "Point", "coordinates": [-75.42024016063576, -34.10890252007943]}}, {"type": "Feature", "properties": {"norad_id": 30264, "name": "FENGYUN 1C DEB", "group": "fengyun-1c-debris", "lat": -61.78902805686235, "lon": -146.35593733814898, "alt_km": 800.5059499341887, "timestamp": "2025-12-21T16:47:55.013272+00:00", "meta": {"OBJECT_NAME": "FENGYUN 1C DEB", "OBJECT_ID": "1999-025XZ", "EPOCH": "2025-12-21T10:35:56.412096", "MEAN_MOTION": 14.07671583, "ECCENTRICITY": 0.010789, "INCLINATION": 98.9696, "RA_OF_ASC_NODE": 50.5104, "ARG_OF_PERICENTER": 262.911, "MEAN_ANOMALY": 112.2462, "EPHEMERIS_TYPE": 0, "CLASSIFICATION_TYPE": "U", "NORAD_CAT_ID": 30264, "ELEMENT_SET_NO": 999, "REV_AT_EPOCH": 96680, "BSTAR": 0.001048, "MEAN_MOTION_DOT": 1.823e-05, "MEAN_MOTION_DDOT": 0}, "tle": {"line1": "1 30264U 99025XZ  25355.44162514  .00001823  00000+0  10480-2 0  9995", "line2": "2 30264  98.9696  50.5104 0107890 262.9110 112.2462 14.07671583966804"}}, "geometry": {"type": "Point", "coordinates": [-146.35593733814898, -61.78902805686235]}}, {"type": "Feature", "properties": {"norad_id": 30265, "name": "FENGYUN 1C DEB", "group": "fengyun-1c-debris", "lat": 69.8189815401196, "lon": -50.28155842112774, "alt_km": 701.3254787768255, "timestamp": "2025-12-21T16:47:55.013283+00:00", "meta": {"OBJECT_NAME": "FENGYUN 1C DEB", "OBJECT_ID": "1999-025YA", "EPOCH": "2025-12-21T06:40:46.027200", "MEAN_MOTION": 14.58769869, "ECCENTRICITY": 0.0028074, "INCLINATION": 98.6645, "RA_OF_ASC_NODE": 104.7675, "ARG_OF_PERICENTER": 345.8449, "MEAN_ANOMALY": 69.2084, "EPHEMERIS_TYPE": 0, "CLASSIFICATION_TYPE": "U", "NORAD_CAT_ID": 30265, "ELEMENT_SET_NO": 999, "REV_AT_EPOCH": 98526, "BSTAR": 0.0015582, "MEAN_MOTION_DOT": 7.274e-05, "MEAN_MOTION_DDOT": 0}, "tle": {"line1": "1 30265U 99025YA  25355.27831050  .00007274  00000+0  15582-2 0  9999", "line2": "2 30265  98.6645 104.7675 0028074 345.8449  69.2084 14.58769869985266"}}, "geometry": {"type": "Point", "coordinates": [-50.28155842112774, 69.8189815401196]}}, {"type": "Feature", "properties": {"norad_id": 30266, "name": "FENGYUN 1C DEB", "group": "fengyun-1c-debris", "lat": 21.70190770940337, "lon": -116.33450867511996, "alt_km": 868.5172127404103, "timestamp": "2025-12-21T16:47:55.013292+00:00", "meta": {"OBJECT_NAME": "FENGYUN 1C DEB", "OBJECT_ID": "1999-025YB", "EPOCH": "2025-12-21T04:29:42.553248", "MEAN_MOTION": 14.15118061, "ECCENTRICITY": 0.00820569, "INCLINATION": 99.0421, "RA_OF_ASC_NODE": 59.5125, "ARG_OF_PERICENTER": 41.9417, "MEAN_ANOMALY": 24.9487, "EPHEMERIS_TYPE": 0, "CLASSIFICATION_TYPE": "U", "NORAD_CAT_ID": 30266, "ELEMENT_SET_NO": 999, "REV_AT_EPOCH": 96909, "BSTAR": 0.00086474995, "MEAN_MOTION_DOT": 1.688e-05, "MEAN_MOTION_DDOT": 0}, "tle": {"line1": "1 30266U 99025YB  25355.18729807  .00001688  00000+0  86475-3 0  9999", "line2": "2 30266  99.0421  59.5125 0082056  41.9417  24.9487 14.15118061969093"}}, "geometry": {"type": "Point", "coordinates": [-116.33450867511996, 21.70190770940337]}}, {"type": "Feature", "properties": {"norad_id": 30267, "name": "FENGYUN 1C DEB", "group": "fengyun-1c-debris", "lat": -13.5525375144402, "lon": 69.06895995741901, "alt_km": 844.2381463144757, "timestamp": "2025-12-21T16:47:55.013303+00:00", "meta": {"OBJECT_NAME": "FENGYUN 1C DEB", "OBJECT_ID": "1999-025YC", "EPOCH": "2025-12-21T03:22:09.835104", "MEAN_MOTION": 14.2365748, "ECCENTRICITY": 0.00597113, "INCLINATION": 98.8495, "RA_OF_ASC_NODE": 66.354, "ARG_OF_PERICENTER": 219.2409, "MEAN_ANOMALY": 140.4434, "EPHEMERIS_TYPE": 0, "CLASSIFICATION_TYPE": "U", "NORAD_CAT_ID": 30267, "ELEMENT_SET_NO": 999, "REV_AT_EPOCH": 97414, "BSTAR": 0.0010460484, "MEAN_MOTION_DOT": 2.385e-05, "MEAN_MOTION_DDOT": 0}, "tle": {"line1": "1 30267U 99025YC  25355.14039161  .00002385  00000+0  10460-2 0  9998", "line2": "2 30267  98.8495  66.3540 0059711 219.2409 140.4434 14.23657480974142"}}, "geometry": {"type": "Point", "coordinates": [69.06895995741901, -13.5525375144402]}}, {"type": "Feature", "properties": {"norad_id": 30270, "name": "FENGYUN 1C DEB", "group": "fengyun-1c-debris", "lat": -62.148623279322216, "lon": 25.99459049102071, "alt_km": 867.4773755158922, "timestamp": "2025-12-21T16:47:55.013313+00:00", "meta": {"OBJECT_NAME": "FENGYUN 1C DEB", "OBJECT_ID": "1999-025YF", "EPOCH": "2025-12-21T12:36:47.716128", "MEAN_MOTION": 14.11274933, "ECCENTRICITY": 0.0007781, "INCLINATION": 98.7017, "RA_OF_ASC_NODE": 8.9771, "ARG_OF_PERICENTER": 136.1349, "MEAN_ANOMALY": 354.9437, "EPHEMERIS_TYPE": 0, "CLASSIFICATION_TYPE": "U", "NORAD_CAT_ID": 30270, "ELEMENT_SET_NO": 999, "REV_AT_EPOCH": 97485, "BSTAR": 8.3474e-05, "MEAN_MOTION_DOT": 1.08e-06, "MEAN_MOTION_DDOT": 0}, "tle": {"line1": "1 30270U 99025YF  25355.52555227  .00000108  00000+0  83474-4 0  9998", "line2": "2 30270  98.7017   8.9771 0007781 136.1349 354.9437 14.11274933974851"}}, "geometry": {"type": "Point", "coordinates": [25.99459049102071, -62.148623279322216]}}]}